{
  "norad_id": 58981,
  "name": "STARLINK-31339",
  "history": [
    {
      "epoch": "2026-03-28T17:09:26.572032Z",
      "apogee_km": 476.06607101433747,
      "perigee_km": 474.37507356695096,
      "latitude_deg": -3.252584382007347e-05,
      "longitude_deg": 124.99509450960501,
      "height_km": 476.31263017829366,
      "semi_major_axis_km": 6853.3575722906435,
      "eccentricity": 0.00012337,
      "inclination_deg": 53.1617,
      "raan_deg": 208.4872,
      "arg_perigee_deg": 103.2442,
      "mean_anomaly_deg": 256.8696,
      "mean_motion_rev_day": 15.30198157
    },
    {
      "epoch": "2026-03-29T00:59:42.986400Z",
      "apogee_km": 476.1407498499657,
      "perigee_km": 474.3314593503501,
      "latitude_deg": -6.42500620676067e-05,
      "longitude_deg": 5.590286761583278,
      "height_km": 476.18172467514114,
      "semi_major_axis_km": 6853.373104600158,
      "eccentricity": 0.000132,
      "inclination_deg": 53.1612,
      "raan_deg": 206.9727,
      "arg_perigee_deg": 93.0083,
      "mean_anomaly_deg": 267.1068,
      "mean_motion_rev_day": 15.30192955
    },
    {
      "epoch": "2026-03-30T00:30:31.005216Z",
      "apogee_km": 475.99183285252093,
      "perigee_km": 474.5087598415921,
      "latitude_deg": -3.779273701103036e-05,
      "longitude_deg": 7.375770081985505,
      "height_km": 476.103542194492,
      "semi_major_axis_km": 6853.387296347057,
      "eccentricity": 0.0001082,
      "inclination_deg": 53.1606,
      "raan_deg": 202.4239,
      "arg_perigee_deg": 86.509,
      "mean_anomaly_deg": 273.6034,
      "mean_motion_rev_day": 15.30188202
    },
    {
      "epoch": "2026-03-30T00:30:31.006080Z",
      "apogee_km": 475.99183285252093,
      "perigee_km": 474.5087598415921,
      "latitude_deg": -3.7792736601910496e-05,
      "longitude_deg": 7.375766472130035,
      "height_km": 476.103542194492,
      "semi_major_axis_km": 6853.387296347057,
      "eccentricity": 0.0001082,
      "inclination_deg": 53.1606,
      "raan_deg": 202.4239,
      "arg_perigee_deg": 86.509,
      "mean_anomaly_deg": 273.6034,
      "mean_motion_rev_day": 15.30188202
    },
    {
      "epoch": "2026-03-30T13:02:57.223104Z",
      "apogee_km": 476.0166139752082,
      "perigee_km": 474.4965312807999,
      "latitude_deg": 2.8704472945776527e-05,
      "longitude_deg": 176.3221542256578,
      "height_km": 476.0532888052568,
      "semi_major_axis_km": 6853.393572628004,
      "eccentricity": 0.0001109,
      "inclination_deg": 53.1613,
      "raan_deg": 199.9945,
      "arg_perigee_deg": 82.3085,
      "mean_anomaly_deg": 277.8042,
      "mean_motion_rev_day": 15.301861
    },
    {
      "epoch": "2026-03-31T14:07:48.621216Z",
      "apogee_km": 476.6257446902937,
      "perigee_km": 473.922759292509,
      "latitude_deg": 5.147446434327454e-05,
      "longitude_deg": 154.22847597986316,
      "height_km": 476.43643502868565,
      "semi_major_axis_km": 6853.4112519914015,
      "eccentricity": 0.0001972,
      "inclination_deg": 53.1595,
      "raan_deg": 195.145,
      "arg_perigee_deg": 101.3131,
      "mean_anomaly_deg": 258.8092,
      "mean_motion_rev_day": 15.30180179
    },
    {
      "epoch": "2026-04-01T13:38:36.537216Z",
      "apogee_km": 476.42992590321137,
      "perigee_km": 474.0846943702827,
      "latitude_deg": -4.945131579739494e-06,
      "longitude_deg": 156.01342789382122,
      "height_km": 476.53880419905516,
      "semi_major_axis_km": 6853.394310136747,
      "eccentricity": 0.0001711,
      "inclination_deg": 53.1592,
      "raan_deg": 190.5953,
      "arg_perigee_deg": 109.1155,
      "mean_anomaly_deg": 251.0031,
      "mean_motion_rev_day": 15.30185853
    },
    {
      "epoch": "2026-04-02T16:17:29.778432Z",
      "apogee_km": 476.20032606098084,
      "perigee_km": 474.21970877294825,
      "latitude_deg": -2.989863011561007e-05,
      "longitude_deg": 110.03367240206978,
      "height_km": 476.00491296934837,
      "semi_major_axis_km": 6853.347017416964,
      "eccentricity": 0.0001445,
      "inclination_deg": 53.1591,
      "raan_deg": 185.4318,
      "arg_perigee_deg": 84.0382,
      "mean_anomaly_deg": 276.0783,
      "mean_motion_rev_day": 15.30201692
    },
    {
      "epoch": "2026-04-02T22:33:41.494176Z",
      "apogee_km": 475.6790525144097,
      "perigee_km": 474.68258010391764,
      "latitude_deg": -4.6579121583960373e-07,
      "longitude_deg": 14.516882406505216,
      "height_km": 476.0851535432524,
      "semi_major_axis_km": 6853.317816309163,
      "eccentricity": 7.27e-05,
      "inclination_deg": 53.1582,
      "raan_deg": 184.2213,
      "arg_perigee_deg": 90.6586,
      "mean_anomaly_deg": 269.4498,
      "mean_motion_rev_day": 15.30211472
    },
    {
      "epoch": "2026-04-03T15:48:18.849600Z",
      "apogee_km": 476.09864745889263,
      "perigee_km": 474.5662116944395,
      "latitude_deg": 5.900280929142859e-07,
      "longitude_deg": 111.81296158625851,
      "height_km": 476.4599315426874,
      "semi_major_axis_km": 6853.469429576666,
      "eccentricity": 0.0001118,
      "inclination_deg": 53.159,
      "raan_deg": 180.8812,
      "arg_perigee_deg": 107.4116,
      "mean_anomaly_deg": 252.7007,
      "mean_motion_rev_day": 15.30160695
    },
    {
      "epoch": "2026-04-04T15:19:05.200032Z",
      "apogee_km": 476.1226682244287,
      "perigee_km": 474.2393764318922,
      "latitude_deg": 1.5048743777135834e-05,
      "longitude_deg": 113.60320545812927,
      "height_km": 476.3000188118895,
      "semi_major_axis_km": 6853.31802232816,
      "eccentricity": 0.0001374,
      "inclination_deg": 53.1588,
      "raan_deg": 176.3302,
      "arg_perigee_deg": 103.5826,
      "mean_anomaly_deg": 256.5328,
      "mean_motion_rev_day": 15.30211403
    },
    {
      "epoch": "2026-04-05T11:41:48.628896Z",
      "apogee_km": 476.2135205207487,
      "perigee_km": 474.4214792381208,
      "latitude_deg": -1.1786046224504729e-05,
      "longitude_deg": 163.14150593574286,
      "height_km": 476.2803974759038,
      "semi_major_axis_km": 6853.4544998794345,
      "eccentricity": 0.00013074,
      "inclination_deg": 53.16,
      "raan_deg": 172.3864,
      "arg_perigee_deg": 94.1525,
      "mean_anomaly_deg": 265.9625,
      "mean_motion_rev_day": 15.30165695
    },
    {
      "epoch": "2026-04-06T04:56:21.960672Z",
      "apogee_km": 475.8409301617048,
      "perigee_km": 474.5116615148445,
      "latitude_deg": -6.092616277819864e-05,
      "longitude_deg": -99.54234260250064,
      "height_km": 476.1038694831174,
      "semi_major_axis_km": 6853.313295838275,
      "eccentricity": 9.698e-05,
      "inclination_deg": 53.1599,
      "raan_deg": 169.0496,
      "arg_perigee_deg": 92.5085,
      "mean_anomaly_deg": 267.6026,
      "mean_motion_rev_day": 15.30212986
    },
    {
      "epoch": "2026-04-07T10:43:23.541600Z",
      "apogee_km": 476.16876591099117,
      "perigee_km": 474.2931361701503,
      "latitude_deg": -4.269280573072022e-05,
      "longitude_deg": 166.7127044302046,
      "height_km": 476.23634811602295,
      "semi_major_axis_km": 6853.367951040571,
      "eccentricity": 0.00013684,
      "inclination_deg": 53.1606,
      "raan_deg": 163.2844,
      "arg_perigee_deg": 96.5747,
      "mean_anomaly_deg": 263.5409,
      "mean_motion_rev_day": 15.30194681
    },
    {
      "epoch": "2026-04-08T13:22:17.199264Z",
      "apogee_km": 475.9564365561828,
      "perigee_km": 474.4084087649926,
      "latitude_deg": -8.491817236497933e-06,
      "longitude_deg": 120.73944871171982,
      "height_km": 475.94490522644503,
      "semi_major_axis_km": 6853.319422660587,
      "eccentricity": 0.00011294,
      "inclination_deg": 53.1604,
      "raan_deg": 158.1291,
      "arg_perigee_deg": 79.8908,
      "mean_anomaly_deg": 280.222,
      "mean_motion_rev_day": 15.30210934
    },
    {
      "epoch": "2026-04-09T20:43:21.171072Z",
      "apogee_km": 476.1916678045718,
      "perigee_km": 474.2699834662635,
      "latitude_deg": -2.3286501070721987e-05,
      "longitude_deg": 3.1166405493071676,
      "height_km": 476.09805004203974,
      "semi_major_axis_km": 6853.367825635418,
      "eccentricity": 0.0001402,
      "inclination_deg": 53.1603,
      "raan_deg": 152.0604,
      "arg_perigee_deg": 88.1688,
      "mean_anomaly_deg": 271.9473,
      "mean_motion_rev_day": 15.30194723
    },
    {
      "epoch": "2026-04-09T20:43:21.171936Z",
      "apogee_km": 476.19132513618115,
      "perigee_km": 474.2703261346551,
      "latitude_deg": -1.8675315023745303e-05,
      "longitude_deg": 3.1166403749389566,
      "height_km": 476.09806099163546,
      "semi_major_axis_km": 6853.367825635418,
      "eccentricity": 0.00014015,
      "inclination_deg": 53.1603,
      "raan_deg": 152.0604,
      "arg_perigee_deg": 88.1688,
      "mean_anomaly_deg": 271.9473,
      "mean_motion_rev_day": 15.30194723
    },
    {
      "epoch": "2026-04-11T19:44:57.269184Z",
      "apogee_km": 476.10138551402724,
      "perigee_km": 474.3414430732373,
      "latitude_deg": 4.286942103609176e-05,
      "longitude_deg": 6.682959282250374,
      "height_km": 476.1840869024854,
      "semi_major_axis_km": 6853.358414293632,
      "eccentricity": 0.0001284,
      "inclination_deg": 53.1595,
      "raan_deg": 142.9584,
      "arg_perigee_deg": 94.2148,
      "mean_anomaly_deg": 265.9,
      "mean_motion_rev_day": 15.30197875
    },
    {
      "epoch": "2026-04-13T03:06:01.781856Z",
      "apogee_km": 475.95692655336916,
      "perigee_km": 474.5448545124036,
      "latitude_deg": 2.3622399205997654e-05,
      "longitude_deg": -110.94050879819444,
      "height_km": 476.24426522767527,
      "semi_major_axis_km": 6853.387890532886,
      "eccentricity": 0.00010302,
      "inclination_deg": 53.1592,
      "raan_deg": 136.8913,
      "arg_perigee_deg": 97.7376,
      "mean_anomaly_deg": 262.3742,
      "mean_motion_rev_day": 15.30188003
    },
    {
      "epoch": "2026-04-14T18:17:21.487200Z",
      "apogee_km": 475.95793952113127,
      "perigee_km": 474.5105075187248,
      "latitude_deg": 3.791892747350345e-05,
      "longitude_deg": 12.03357080003569,
      "height_km": 476.09370162147235,
      "semi_major_axis_km": 6853.371223519928,
      "eccentricity": 0.0001056,
      "inclination_deg": 53.159,
      "raan_deg": 129.3069,
      "arg_perigee_deg": 86.9288,
      "mean_anomaly_deg": 273.1834,
      "mean_motion_rev_day": 15.30193585
    },
    {
      "epoch": "2026-04-15T17:48:09.207072Z",
      "apogee_km": 475.94779113677396,
      "perigee_km": 474.49624969624983,
      "latitude_deg": -5.605662791744401e-05,
      "longitude_deg": 13.817714735015704,
      "height_km": 475.92853045217663,
      "semi_major_axis_km": 6853.359020416511,
      "eccentricity": 0.0001059,
      "inclination_deg": 53.1592,
      "raan_deg": 124.7556,
      "arg_perigee_deg": 74.6742,
      "mean_anomaly_deg": 285.4375,
      "mean_motion_rev_day": 15.30197672
    },
    {
      "epoch": "2026-04-16T07:54:38.159712Z",
      "apogee_km": 475.99262897513563,
      "perigee_km": 474.4698105567031,
      "latitude_deg": -4.231174068404987e-05,
      "longitude_deg": 158.8880934030574,
      "height_km": 476.01418228857295,
      "semi_major_axis_km": 6853.368219765919,
      "eccentricity": 0.0001111,
      "inclination_deg": 53.1596,
      "raan_deg": 122.026,
      "arg_perigee_deg": 81.2895,
      "mean_anomaly_deg": 278.8231,
      "mean_motion_rev_day": 15.30194591
    },
    {
      "epoch": "2026-04-17T04:17:19.483872Z",
      "apogee_km": 476.01991731401085,
      "perigee_km": 474.4204808108925,
      "latitude_deg": 4.150357694647538e-05,
      "longitude_deg": -151.565027378326,
      "height_km": 475.98344516952324,
      "semi_major_axis_km": 6853.357199062451,
      "eccentricity": 0.00011669,
      "inclination_deg": 53.1602,
      "raan_deg": 118.0819,
      "arg_perigee_deg": 80.2807,
      "mean_anomaly_deg": 279.8326,
      "mean_motion_rev_day": 15.30198282
    }
  ]
}